ADRAS-J                 
1 58992U 24034A   24284.85097221  .00012942  00000+0  11409-2 0  9994
2 58992  98.2268 263.3332 0044118  30.4346 329.9421 14.95824642 35148
